CCSDS_OMM_VERS = 2.0
CREATION_DATE  = 
ORIGINATOR     = 

OBJECT_NAME    = SL-16 R/B
OBJECT_ID      = 1993-016B
CENTER_NAME    = EARTH
REF_FRAME      = TEME
TIME_SYSTEM    = UTC
MEAN_ELEMENT_THEORY = SGP/SGP4

EPOCH          = 2026-02-21T17:40:06.856608
MEAN_MOTION    = 14.15299897
ECCENTRICITY   = .0010756
INCLINATION    = 71.0042
RA_OF_ASC_NODE = 248.6897
ARG_OF_PERICENTER = 335.9073
MEAN_ANOMALY   = 24.1545

EPHEMERIS_TYPE = 0
CLASSIFICATION_TYPE = U
NORAD_CAT_ID   = 22566
ELEMENT_SET_NO = 999
REV_AT_EPOCH   = 69991
BSTAR          = -.2118E-6
MEAN_MOTION_DOT = -.48E-6
MEAN_MOTION_DDOT = 0

CCSDS_OMM_VERS = 2.0
CREATION_DATE  = 
ORIGINATOR     = 

OBJECT_NAME    = COSMOS 2242
OBJECT_ID      = 1993-024A
CENTER_NAME    = EARTH
REF_FRAME      = TEME
TIME_SYSTEM    = UTC
MEAN_ELEMENT_THEORY = SGP/SGP4

EPOCH          = 2026-02-21T17:20:11.626656
MEAN_MOTION    = 14.96477927
ECCENTRICITY   = .0016524
INCLINATION    = 82.5169
RA_OF_ASC_NODE = 281.9911
ARG_OF_PERICENTER = 4.4760
MEAN_ANOMALY   = 355.6607

EPHEMERIS_TYPE = 0
CLASSIFICATION_TYPE = U
NORAD_CAT_ID   = 22626
ELEMENT_SET_NO = 999
REV_AT_EPOCH   = 77800
BSTAR          = .13863E-3
MEAN_MOTION_DOT = .1603E-4
MEAN_MOTION_DDOT = 0

CCSDS_OMM_VERS = 2.0
CREATION_DATE  = 
ORIGINATOR     = 

OBJECT_NAME    = SL-16 R/B
OBJECT_ID      = 1993-059B
CENTER_NAME    = EARTH
REF_FRAME      = TEME
TIME_SYSTEM    = UTC
MEAN_ELEMENT_THEORY = SGP/SGP4

EPOCH          = 2026-02-21T09:13:29.841024
MEAN_MOTION    = 14.17227614
ECCENTRICITY   = .00191844
INCLINATION    = 70.9896
RA_OF_ASC_NODE = 45.5104
ARG_OF_PERICENTER = 238.9633
MEAN_ANOMALY   = 120.9608

EPHEMERIS_TYPE = 0
CLASSIFICATION_TYPE = U
NORAD_CAT_ID   = 22803
ELEMENT_SET_NO = 999
REV_AT_EPOCH   = 67722
BSTAR          = .50985756E-4
MEAN_MOTION_DOT = .55E-6
MEAN_MOTION_DDOT = 0

CCSDS_OMM_VERS = 2.0
CREATION_DATE  = 
ORIGINATOR     = 

OBJECT_NAME    = ARIANE 40 R/B
OBJECT_ID      = 1993-061H
CENTER_NAME    = EARTH
REF_FRAME      = TEME
TIME_SYSTEM    = UTC
MEAN_ELEMENT_THEORY = SGP/SGP4

EPOCH          = 2026-02-21T16:58:34.561344
MEAN_MOTION    = 14.32851620
ECCENTRICITY   = .0010001
INCLINATION    = 98.4953
RA_OF_ASC_NODE = 121.9078
ARG_OF_PERICENTER = 336.8606
MEAN_ANOMALY   = 23.2127

EPHEMERIS_TYPE = 0
CLASSIFICATION_TYPE = U
NORAD_CAT_ID   = 22830
ELEMENT_SET_NO = 999
REV_AT_EPOCH   = 69181
BSTAR          = .75947E-4
MEAN_MOTION_DOT = .164E-5
MEAN_MOTION_DDOT = 0

CCSDS_OMM_VERS = 2.0
CREATION_DATE  = 
ORIGINATOR     = 

OBJECT_NAME    = COSMOS 2278
OBJECT_ID      = 1994-023A
CENTER_NAME    = EARTH
REF_FRAME      = TEME
TIME_SYSTEM    = UTC
MEAN_ELEMENT_THEORY = SGP/SGP4

EPOCH          = 2026-02-21T19:49:51.822336
MEAN_MOTION    = 14.14367195
ECCENTRICITY   = .0007193
INCLINATION    = 71.0517
RA_OF_ASC_NODE = 208.2847
ARG_OF_PERICENTER = 45.0019
MEAN_ANOMALY   = 315.1685

EPHEMERIS_TYPE = 0
CLASSIFICATION_TYPE = U
NORAD_CAT_ID   = 23087
ELEMENT_SET_NO = 999
REV_AT_EPOCH   = 64256
BSTAR          = .19017E-3
MEAN_MOTION_DOT = .317E-5
MEAN_MOTION_DDOT = 0

CCSDS_OMM_VERS = 2.0
CREATION_DATE  = 
ORIGINATOR     = 

OBJECT_NAME    = SL-16 R/B
OBJECT_ID      = 1994-023B
CENTER_NAME    = EARTH
REF_FRAME      = TEME
TIME_SYSTEM    = UTC
MEAN_ELEMENT_THEORY = SGP/SGP4

EPOCH          = 2026-02-21T14:19:56.040960
MEAN_MOTION    = 14.15010894
ECCENTRICITY   = .0004989
INCLINATION    = 70.9991
RA_OF_ASC_NODE = 104.6855
ARG_OF_PERICENTER = 300.4329
MEAN_ANOMALY   = 59.6300

EPHEMERIS_TYPE = 0
CLASSIFICATION_TYPE = U
NORAD_CAT_ID   = 23088
ELEMENT_SET_NO = 999
REV_AT_EPOCH   = 64381
BSTAR          = .15761E-3
MEAN_MOTION_DOT = .258E-5
MEAN_MOTION_DDOT = 0

CCSDS_OMM_VERS = 2.0
CREATION_DATE  = 
ORIGINATOR     = 

OBJECT_NAME    = SL-16 R/B
OBJECT_ID      = 1994-074B
CENTER_NAME    = EARTH
REF_FRAME      = TEME
TIME_SYSTEM    = UTC
MEAN_ELEMENT_THEORY = SGP/SGP4

EPOCH          = 2026-02-21T16:57:28.113696
MEAN_MOTION    = 14.79387151
ECCENTRICITY   = .0005127
INCLINATION    = 97.7133
RA_OF_ASC_NODE = 84.1700
ARG_OF_PERICENTER = 274.7561
MEAN_ANOMALY   = 203.0139

EPHEMERIS_TYPE = 0
CLASSIFICATION_TYPE = U
NORAD_CAT_ID   = 23343
ELEMENT_SET_NO = 999
REV_AT_EPOCH   = 68488
BSTAR          = .59768E-4
MEAN_MOTION_DOT = .396E-5
MEAN_MOTION_DDOT = 0

CCSDS_OMM_VERS = 2.0
CREATION_DATE  = 
ORIGINATOR     = 

OBJECT_NAME    = SL-16 R/B
OBJECT_ID      = 1994-077B
CENTER_NAME    = EARTH
REF_FRAME      = TEME
TIME_SYSTEM    = UTC
MEAN_ELEMENT_THEORY = SGP/SGP4

EPOCH          = 2026-02-21T10:38:57.963552
MEAN_MOTION    = 14.15563835
ECCENTRICITY   = .00038478
INCLINATION    = 70.9839
RA_OF_ASC_NODE = 26.6650
ARG_OF_PERICENTER = 228.6152
MEAN_ANOMALY   = 131.4640

EPHEMERIS_TYPE = 0
CLASSIFICATION_TYPE = U
NORAD_CAT_ID   = 23405
ELEMENT_SET_NO = 999
REV_AT_EPOCH   = 61393
BSTAR          = .44267312E-4
MEAN_MOTION_DOT = .39E-6
MEAN_MOTION_DDOT = 0

CCSDS_OMM_VERS = 2.0
CREATION_DATE  = 
ORIGINATOR     = 

OBJECT_NAME    = ARIANE 40+ R/B
OBJECT_ID      = 1995-021B
CENTER_NAME    = EARTH
REF_FRAME      = TEME
TIME_SYSTEM    = UTC
MEAN_ELEMENT_THEORY = SGP/SGP4

EPOCH          = 2026-02-21T16:53:16.454688
MEAN_MOTION    = 14.39759606
ECCENTRICITY   = .0006879
INCLINATION    = 98.4531
RA_OF_ASC_NODE = 124.4001
ARG_OF_PERICENTER = 180.5963
MEAN_ANOMALY   = 291.8248

EPHEMERIS_TYPE = 0
CLASSIFICATION_TYPE = U
NORAD_CAT_ID   = 23561
ELEMENT_SET_NO = 999
REV_AT_EPOCH   = 61694
BSTAR          = .89845E-4
MEAN_MOTION_DOT = .238E-5
MEAN_MOTION_DDOT = 0

CCSDS_OMM_VERS = 2.0
CREATION_DATE  = 
ORIGINATOR     = 

OBJECT_NAME    = SL-16 R/B
OBJECT_ID      = 1995-058B
CENTER_NAME    = EARTH
REF_FRAME      = TEME
TIME_SYSTEM    = UTC
MEAN_ELEMENT_THEORY = SGP/SGP4

EPOCH          = 2026-02-21T17:34:54.385824
MEAN_MOTION    = 14.15495046
ECCENTRICITY   = .0011345
INCLINATION    = 71.0201
RA_OF_ASC_NODE = 213.7546
ARG_OF_PERICENTER = 153.7238
MEAN_ANOMALY   = 206.4463

EPHEMERIS_TYPE = 0
CLASSIFICATION_TYPE = U
NORAD_CAT_ID   = 23705
ELEMENT_SET_NO = 999
REV_AT_EPOCH   = 56559
BSTAR          = -.85106E-4
MEAN_MOTION_DOT = -.214E-5
MEAN_MOTION_DDOT = 0

CCSDS_OMM_VERS = 2.0
CREATION_DATE  = 
ORIGINATOR     = 

OBJECT_NAME    = SL-16 R/B
OBJECT_ID      = 1996-051B
CENTER_NAME    = EARTH
REF_FRAME      = TEME
TIME_SYSTEM    = UTC
MEAN_ELEMENT_THEORY = SGP/SGP4

EPOCH          = 2026-02-21T17:39:02.665728
MEAN_MOTION    = 14.12411042
ECCENTRICITY   = .0016542
INCLINATION    = 70.7580
RA_OF_ASC_NODE = 209.0065
ARG_OF_PERICENTER = 171.0718
MEAN_ANOMALY   = 189.0699

EPHEMERIS_TYPE = 0
CLASSIFICATION_TYPE = U
NORAD_CAT_ID   = 24298
ELEMENT_SET_NO = 999
REV_AT_EPOCH   = 51939
BSTAR          = .7246E-4
MEAN_MOTION_DOT = .85E-6
MEAN_MOTION_DDOT = 0

CCSDS_OMM_VERS = 2.0
CREATION_DATE  = 
ORIGINATOR     = 

OBJECT_NAME    = ORBVIEW 2 (SEASTAR)
OBJECT_ID      = 1997-037A
CENTER_NAME    = EARTH
REF_FRAME      = TEME
TIME_SYSTEM    = UTC
MEAN_ELEMENT_THEORY = SGP/SGP4

EPOCH          = 2026-02-21T10:56:41.844768
MEAN_MOTION    = 14.35481045
ECCENTRICITY   = .00031905
INCLINATION    = 98.8537
RA_OF_ASC_NODE = 216.3401
ARG_OF_PERICENTER = 104.8176
MEAN_ANOMALY   = 255.3362

EPHEMERIS_TYPE = 0
CLASSIFICATION_TYPE = U
NORAD_CAT_ID   = 24883
ELEMENT_SET_NO = 999
REV_AT_EPOCH   = 50614
BSTAR          = .1010346E-3
MEAN_MOTION_DOT = .244E-5
MEAN_MOTION_DDOT = 0

