SL-16 R/B               
1 22566U 93016B   26052.73619047 -.00000048  00000+0 -21180-6 0  9993
2 22566  71.0042 248.6897 0010756 335.9073  24.1545 14.15299897699910
COSMOS 2242             
1 22626U 93024A   26052.72235679  .00001603  00000+0  13863-3 0  9995
2 22626  82.5169 281.9911 0016524   4.4760 355.6607 14.96477927778001
SL-16 R/B               
1 22803U 93059B   26052.38437316  .00000055  00000+0  50986-4 0  9992
2 22803  70.9896  45.5104 0019184 238.9633 120.9608 14.17227614677227
ARIANE 40 R/B           
1 22830U 93061H   26052.70734446  .00000164  00000+0  75947-4 0  9990
2 22830  98.4953 121.9078 0010001 336.8606  23.2127 14.32851620691811
COSMOS 2278             
1 23087U 94023A   26052.82629424  .00000317  00000+0  19017-3 0  9991
2 23087  71.0517 208.2847 0007193  45.0019 315.1685 14.14367195642566
SL-16 R/B               
1 23088U 94023B   26052.59717640  .00000258  00000+0  15761-3 0  9990
2 23088  70.9991 104.6855 0004989 300.4329  59.6300 14.15010894643816
SL-16 R/B               
1 23343U 94074B   26052.70657539  .00000396  00000+0  59768-4 0  9992
2 23343  97.7133  84.1700 0005127 274.7561 203.0139 14.79387151684882
SL-16 R/B               
1 23405U 94077B   26052.44372643  .00000039  00000+0  44267-4 0  9997
2 23405  70.9839  26.6650 0003847 228.6152 131.4640 14.15563835613937
ARIANE 40+ R/B          
1 23561U 95021B   26052.70366267  .00000238  00000+0  89845-4 0  9996
2 23561  98.4531 124.4001 0006879 180.5963 291.8248 14.39759606616943
SL-16 R/B               
1 23705U 95058B   26052.73257391 -.00000214  00000+0 -85106-4 0  9998
2 23705  71.0201 213.7546 0011345 153.7238 206.4463 14.15495046565595
SL-16 R/B               
1 24298U 96051B   26052.73544752  .00000085  00000+0  72460-4 0  9993
2 24298  70.7580 209.0065 0016542 171.0718 189.0699 14.12411042519398
ORBVIEW 2 (SEASTAR)     
1 24883U 97037A   26052.45603987  .00000244  00000+0  10103-3 0  9995
2 24883  98.8537 216.3401 0003190 104.8176 255.3362 14.35481045506141
